ONEWEB-0211             
1 48767U 21045A   26163.24964617  .00000107  00000+0  24701-3 0  9995
2 48767  87.9004 260.0662 0001750 121.7121 238.4180 13.16196552243792
ONEWEB-0223             
1 48768U 21045B   26163.24954545  .00000085  00000+0  19206-3 0  9994
2 48768  87.9009 260.1734 0001584 109.1567 250.9735 13.15542655243757
ONEWEB-0230             
1 48769U 21045C   26163.29707671 -.00000101  00000+0 -30259-3 0  9998
2 48769  87.9001 260.1780 0002052  96.3913 263.7451 13.15548345244024
ONEWEB-0237             
1 48770U 21045D   26163.28596966 -.00000033  00000+0 -12120-3 0  9993
2 48770  87.9002 260.1819 0001715 101.1917 258.9406 13.15546985243746
ONEWEB-0235             
1 48771U 21045E   26163.26063592  .00000195  00000+0  48482-3 0  9993
2 48771  87.9009 260.1722 0001563 106.2756 253.8546 13.15548531243732
ONEWEB-0242             
1 48772U 21045F   26163.25427792 -.00000550  00000+0 -14949-2 0  9996
2 48772  87.9011 260.1703 0001763  97.6171 262.5160 13.15550564243773
ONEWEB-0241             
1 48773U 21045G   26163.24162536  .00000077  00000+0  17075-3 0  9994
2 48773  87.8999 260.1916 0001739 112.6492 247.4823 13.15548568243680
ONEWEB-0243             
1 48774U 21045H   26163.27330815  .00000089  00000+0  20149-3 0  9994
2 48774  87.9000 260.1974 0001506  90.9404 269.1899 13.15548894243712
ONEWEB-0222             
1 48775U 21045J   26163.25667038  .00000181  00000+0  44683-3 0  9995
2 48775  87.9007 260.1681 0001789 105.8964 254.2364 13.15548753243755
ONEWEB-0244             
1 48776U 21045K   26163.28281623 -.00000007  00000+0 -51772-4 0  9998
2 48776  87.9016 260.1571 0001827 100.8834 259.2502 13.15548435244328
ONEWEB-0247             
1 48777U 21045L   26163.27963800  .00000001  00000+0 -30518-4 0  9990
2 48777  87.9001 260.1906 0001119  96.5823 263.5435 13.15546999243761
ONEWEB-0245             
1 48778U 21045M   26163.27488503  .00000055  00000+0  11269-3 0  9992
2 48778  87.9009 260.1704 0001893 105.9805 254.1534 13.15547838243736
ONEWEB-0229             
1 48779U 21045N   26163.27013908  .00000129  00000+0  30990-3 0  9990
2 48779  87.9010 260.1693 0001853  98.3962 261.7378 13.15548741243768
ONEWEB-0228             
1 48780U 21045P   26163.30353357 -.00000246  00000+0 -68651-3 0  9998
2 48780  87.9014 260.1550 0001900 101.6400 258.4944 13.15547846243682
ONEWEB-0232             
1 48781U 21045Q   26163.27805206  .00000018  00000+0  13199-4 0  9993
2 48781  87.9013 260.1611 0001964 103.1071 257.0279 13.15549998244004
ONEWEB-0231             
1 48782U 21045R   26163.25587443  .00000226  00000+0  56536-3 0  9994
2 48782  87.9005 260.1790 0001758 105.2528 254.8797 13.15548684243690
ONEWEB-0234             
1 48783U 21045S   26163.29376830 -.00000097  00000+0 -29066-3 0  9991
2 48783  87.9008 260.1528 0002642 113.7235 246.4173 13.15548934243834
ONEWEB-0238             
1 48784U 21045T   26163.29403004 -.00000319  00000+0 -88134-3 0  9994
2 48784  87.9014 260.1472 0002283 108.7122 251.4256 13.15548256243734
ONEWEB-0240             
1 48785U 21045U   26163.23923280  .00000040  00000+0  71219-4 0  9998
2 48785  87.9011 260.1682 0001804 109.9475 250.1850 13.15547269243758
ONEWEB-0246             
1 48786U 21045V   26163.30975490  .00000029  00000+0  43161-4 0  9999
2 48786  87.9010 260.1588 0001873  98.7114 261.4228 13.15548807243634
ONEWEB-0210             
1 48787U 21045W   26163.28438695 -.00000038  00000+0 -13542-3 0  9999
2 48787  87.9011 260.1606 0001204  82.5108 277.6159 13.15550606243675
ONEWEB-0214             
1 48788U 21045X   26163.29311119 -.00000096  00000+0 -28854-3 0  9998
2 48788  87.9010 260.1556 0001886  89.7958 270.3389 13.15548598243646
ONEWEB-0221             
1 48789U 21045Y   26163.30024409 -.00000134  00000+0 -38897-3 0  9995
2 48789  87.9011 260.1633 0001787 103.4386 256.6943 13.15548608243738
ONEWEB-0213             
1 48790U 21045Z   26163.28913770 -.00000050  00000+0 -16632-3 0  9992
2 48790  87.9009 260.1684 0001658 101.0586 259.0731 13.15547042243795
ONEWEB-0212             
1 48791U 21045AA  26163.26617780  .00000142  00000+0  34333-3 0  9991
2 48791  87.9009 260.1676 0001996 101.7161 258.4194 13.15549915243784
ONEWEB-0227             
1 48792U 21045AB  26163.26538934  .00000162  00000+0  39714-3 0  9995
2 48792  87.9008 260.1686 0001886 102.8039 257.3302 13.15548891243735
ONEWEB-0226             
1 48793U 21045AC  26163.25904028  .00000179  00000+0  44118-3 0  9998
2 48793  87.9005 260.1746 0001692  98.1936 261.9386 13.15550255243705
ONEWEB-0224             
1 48794U 21045AD  26163.29864402 -.00000112  00000+0 -33089-3 0  9998
2 48794  87.9001 260.2011 0002214 124.7424 235.3916 13.15546944243633
ONEWEB-0233             
1 48795U 21045AE  26163.30327435 -.00000091  00000+0 -27522-3 0  9992
2 48795  87.9000 260.2077 0001725 107.0022 253.1297 13.15548123243652
ONEWEB-0190             
1 48796U 21045AF  26163.29072047 -.00000079  00000+0 -24409-3 0  9994
2 48796  87.9002 260.1717 0001294 106.2996 253.8277 13.15546815243726
