OBJECT_NAME,OBJECT_ID,EPOCH,MEAN_MOTION,ECCENTRICITY,INCLINATION,RA_OF_ASC_NODE,ARG_OF_PERICENTER,MEAN_ANOMALY,EPHEMERIS_TYPE,CLASSIFICATION_TYPE,NORAD_CAT_ID,ELEMENT_SET_NO,REV_AT_EPOCH,BSTAR,MEAN_MOTION_DOT,MEAN_MOTION_DDOT
ONEWEB-0211,2021-045A,2026-06-12T05:59:29.429088,13.16196552,.00017507,87.9004,260.0662,121.7121,238.4180,0,U,48767,999,24379,.2470077E-3,.107E-5,0
ONEWEB-0223,2021-045B,2026-06-12T05:59:20.726880,13.15542655,.00015842,87.9009,260.1734,109.1567,250.9735,0,U,48768,999,24375,.19206228E-3,.85E-6,0
ONEWEB-0230,2021-045C,2026-06-12T07:07:47.427744,13.15548345,.00020527,87.9001,260.1780,96.3913,263.7451,0,U,48769,999,24402,-.30258614E-3,-.101E-5,0
ONEWEB-0237,2021-045D,2026-06-12T06:51:47.778624,13.15546985,.00017156,87.9002,260.1819,101.1917,258.9406,0,U,48770,999,24374,-.12119547E-3,-.33E-6,0
ONEWEB-0235,2021-045E,2026-06-12T06:15:18.943488,13.15548531,.00015638,87.9009,260.1722,106.2756,253.8546,0,U,48771,999,24373,.48481975E-3,.195E-5,0
ONEWEB-0242,2021-045F,2026-06-12T06:06:09.612288,13.15550564,.00017632,87.9011,260.1703,97.6171,262.5160,0,U,48772,999,24377,-.14948793E-2,-.55E-5,0
ONEWEB-0241,2021-045G,2026-06-12T05:47:56.431104,13.15548568,.00017395,87.8999,260.1916,112.6492,247.4823,0,U,48773,999,24368,.17075331E-3,.77E-6,0
ONEWEB-0243,2021-045H,2026-06-12T06:33:33.824160,13.15548894,.00015065,87.9000,260.1974,90.9404,269.1899,0,U,48774,999,24371,.20148864E-3,.89E-6,0
ONEWEB-0222,2021-045J,2026-06-12T06:09:36.320832,13.15548753,.00017892,87.9007,260.1681,105.8964,254.2364,0,U,48775,999,24375,.44682901E-3,.181E-5,0
ONEWEB-0244,2021-045K,2026-06-12T06:47:15.322272,13.15548435,.00018272,87.9016,260.1571,100.8834,259.2502,0,U,48776,999,24432,-.51771918E-4,-.7E-7,0
ONEWEB-0247,2021-045L,2026-06-12T06:42:40.723200,13.15546999,.0001119,87.9001,260.1906,96.5823,263.5435,0,U,48777,999,24376,-.30518104E-4,.1E-7,0
ONEWEB-0245,2021-045M,2026-06-12T06:35:50.066592,13.15547838,.00018935,87.9009,260.1704,105.9805,254.1534,0,U,48778,999,24373,.11269293E-3,.55E-6,0
ONEWEB-0229,2021-045N,2026-06-12T06:29:00.016512,13.15548741,.00018535,87.9010,260.1693,98.3962,261.7378,0,U,48779,999,24376,.30990387E-3,.129E-5,0
ONEWEB-0228,2021-045P,2026-06-12T07:17:05.300448,13.15547846,.00019,87.9014,260.1550,101.6400,258.4944,0,U,48780,999,24368,-.68651074E-3,-.246E-5,0
ONEWEB-0232,2021-045Q,2026-06-12T06:40:23.697984,13.15549998,.00019648,87.9013,260.1611,103.1071,257.0279,0,U,48781,999,24400,.13199025E-4,.18E-6,0
ONEWEB-0231,2021-045R,2026-06-12T06:08:27.550752,13.15548684,.00017589,87.9005,260.1790,105.2528,254.8797,0,U,48782,999,24369,.56535881E-3,.226E-5,0
ONEWEB-0234,2021-045S,2026-06-12T07:03:01.581120,13.15548934,.00026423,87.9008,260.1528,113.7235,246.4173,0,U,48783,999,24383,-.29065948E-3,-.97E-6,0
ONEWEB-0238,2021-045T,2026-06-12T07:03:24.195456,13.15548256,.00022832,87.9014,260.1472,108.7122,251.4256,0,U,48784,999,24373,-.881336E-3,-.319E-5,0
ONEWEB-0240,2021-045U,2026-06-12T05:44:29.713920,13.15547269,.00018041,87.9011,260.1682,109.9475,250.1850,0,U,48785,999,24375,.71219325E-4,.4E-6,0
ONEWEB-0246,2021-045V,2026-06-12T07:26:02.823360,13.15548807,.00018737,87.9010,260.1588,98.7114,261.4228,0,U,48786,999,24363,.4316058E-4,.29E-6,0
ONEWEB-0210,2021-045W,2026-06-12T06:49:31.032480,13.15550606,.00012048,87.9011,260.1606,82.5108,277.6159,0,U,48787,999,24367,-.13542012E-3,-.38E-6,0
ONEWEB-0214,2021-045X,2026-06-12T07:02:04.806816,13.15548598,.00018867,87.9010,260.1556,89.7958,270.3389,0,U,48788,999,24364,-.28853823E-3,-.96E-6,0
ONEWEB-0221,2021-045Y,2026-06-12T07:12:21.089376,13.15548608,.00017877,87.9011,260.1633,103.4386,256.6943,0,U,48789,999,24373,-.38897311E-3,-.134E-5,0
ONEWEB-0213,2021-045Z,2026-06-12T06:56:21.497280,13.15547042,.00016589,87.9009,260.1684,101.0586,259.0731,0,U,48790,999,24379,-.16631832E-3,-.5E-6,0
ONEWEB-0212,2021-045AA,2026-06-12T06:23:17.761920,13.15549915,.00019965,87.9009,260.1676,101.7161,258.4194,0,U,48791,999,24378,.34332549E-3,.142E-5,0
ONEWEB-0227,2021-045AB,2026-06-12T06:22:09.638976,13.15548891,.00018861,87.9008,260.1686,102.8039,257.3302,0,U,48792,999,24373,.39714241E-3,.162E-5,0
ONEWEB-0226,2021-045AC,2026-06-12T06:13:01.080192,13.15550255,.00016926,87.9005,260.1746,98.1936,261.9386,0,U,48793,999,24370,.44118174E-3,.179E-5,0
ONEWEB-0224,2021-045AD,2026-06-12T07:10:02.843328,13.15546944,.00022147,87.9001,260.2011,124.7424,235.3916,0,U,48794,999,24363,-.33088711E-3,-.112E-5,0
ONEWEB-0233,2021-045AE,2026-06-12T07:16:42.903840,13.15548123,.00017251,87.9000,260.2077,107.0022,253.1297,0,U,48795,999,24365,-.2752166E-3,-.91E-6,0
ONEWEB-0190,2021-045AF,2026-06-12T06:58:38.248608,13.15546815,.00012945,87.9002,260.1717,106.2996,253.8277,0,U,48796,999,24372,-.2440911E-3,-.79E-6,0
